STARLINK-2147
1 47736U 21017Q   26092.83335647  .01063022  00000+0  28277-1 0  9996
2 47736  53.0826  91.4720 0001494 100.7662 325.0927 15.35016624  5710
